NSS-10                  
1 28526U 05003A   25113.66677319 -.00000245  00000+0  00000+0 0  9998
2 28526   5.3986  75.5068 0003049 316.2868  22.7488  1.00270270 48942
XTAR-EUR                
1 28542U 05005A   25113.55871720  .00000156  00000+0  00000+0 0  9998
2 28542   3.2511  81.9100 0005121 295.0942  65.0004  1.00273068 73983
XM-3 (RHYTHM)           
1 28626U 05008A   25113.87126973 -.00000197  00000+0  00000+0 0  9998
2 28626   0.0143 286.5720 0001616 191.0726 321.8192  1.00269672 38419
INMARSAT 4-F1           
1 28628U 05009A   25114.06647424  .00000037  00000+0  00000+0 0  9994
2 28628   4.6322  42.0871 0003352  10.0570   2.2119  1.00271824 73463
DIRECTV 8               
1 28659U 05019A   25113.65061344  .00000003  00000+0  00000+0 0  9997
2 28659   0.0195 254.8011 0003040 139.1208 293.1849  1.00272379 72869
GALAXY 28 (G-28)        
1 28702U 05022A   25114.08497975 -.00000183  00000+0  00000+0 0  9991
2 28702   2.2183  84.1361 0001838 277.8399 152.2797  1.00272461 72628
THAICOM 4               
1 28786U 05028A   25114.48328250 -.00000360  00000+0  00000+0 0  9999
2 28786   0.0153 225.5197 0002234 189.2132  91.5199  1.00266849 72122
ANIK F1R                
1 28868U 05036A   25113.86709948 -.00000069  00000+0  00000+0 0  9993
2 28868   3.2349  81.7901 0003293 325.0106  10.2167  1.00271413 42243
SYRACUSE 3A             
1 28885U 05041B   25114.17828925  .00000136  00000+0  00000+0 0  9994
2 28885   3.5749  81.0446 0003250 317.5425 259.8950  1.00275627 71546
INMARSAT 4-F2           
1 28899U 05044A   25113.80600368 -.00000256  00000+0  00000+0 0  9994
2 28899   4.5563  43.3543 0002999   6.7810 235.6151  1.00271047 71311
METEOSAT-9 (MSG-2)      
1 28912U 05049B   25113.89749197  .00000132  00000+0  00000+0 0  9990
2 28912   8.4043  58.1352 0000962   2.2294 160.5673  1.00272738  2801
EUTELSAT 174A           
1 28924U 05052A   25113.85146102  .00000014  00000+0  00000+0 0  9999
2 28924   3.1541  81.7113 0006432 313.3161 297.6270  1.00271383 48128
ECHOSTAR 10             
1 28935U 06003A   25113.86649132 -.00000053  00000+0  00000+0 0  9994
2 28935   0.0196  82.4428 0001489 294.1496  37.2936  1.00269630 70251
SPAINSAT                
1 28945U 06007A   25113.49506608 -.00000214  00000+0  00000+0 0  9997
2 28945   0.0299 245.0997 0002332 154.1635 320.7594  1.00270474 70014
EUTELSAT HOTBIRD 13E    
1 28946U 06007B   25114.09940189 -.00000123  00000+0  00000+0 0  9990
2 28946   1.0116  90.9426 0005508 320.6964 180.5453  1.00271115 70098
JCSAT-5A                
1 29045U 06010A   25113.84320737 -.00000326  00000+0  00000+0 0  9993
2 29045   0.0882  86.6489 0001750 339.6314 221.4582  1.00272306 69564
ASTRA 1KR               
1 29055U 06012A   25113.89220789  .00000122  00000+0  00000+0 0  9990
2 29055   0.0242 307.4342 0000971 357.5799 247.5531  1.00270438 41519
EWS-G1 (GOES 13)        
1 29155U 06018A   25113.89365356 -.00000201  00000+0  00000+0 0  9996
2 29155   3.4396  81.5198 0065140 264.6343 313.4188  0.98831377 39102
GALAXY 16 (G-16)        
1 29236U 06023A   25113.86875021 -.00000125  00000+0  00000+0 0  9999
2 29236   0.0221 229.6692 0002835 170.2648  25.9673  1.00273694 68762
EUTELSAT HOTBIRD 13B    
1 29270U 06032A   25113.89497243  .00000158  00000+0  00000+0 0  9991
2 29270   0.5755  86.3369 0004082 308.8750 172.2444  1.00272272 43109
JCSAT-3A                
1 29272U 06033A   25113.83447778 -.00000343  00000+0  00000+0 0  9993
2 29272   0.0096 202.1357 0002186 206.3282 232.0593  1.00271608 43533
SYRACUSE 3B             
1 29273U 06033B   25113.88908020  .00000026  00000+0  00000+0 0  9998
2 29273   1.8230  85.4145 0004393 301.8242 148.3549  1.00271870 68470
KOREASAT 5 (MUGUNGWHA 5)
1 29349U 06034A   25113.90878314 -.00000355  00000+0  00000+0 0  9994
2 29349   0.6978  88.9838 0002051 349.4427 213.9828  1.00269523 37117
DIRECTV 9S              
1 29494U 06043A   25113.86831581 -.00000110  00000+0  00000+0 0  9994
2 29494   1.3357  85.9976 0002990 309.5934  27.9642  1.00272478 47176
OPTUS D1                
1 29495U 06043B   25113.84711699 -.00000179  00000+0  00000+0 0  9995
2 29495   1.9505  84.8871 0003857 309.7140 274.5009  1.00270593 67911
BADR-4                  
1 29526U 06051A   25113.89358235  .00000149  00000+0  00000+0 0  9993
2 29526   0.9198  85.2488 0006233 293.5819 181.3256  1.00274714 47068
WILDBLUE-1              
1 29643U 06054A   25113.86631756 -.00000045  00000+0  00000+0 0  9991
2 29643   1.7180  85.9109 0001594 317.0659   9.8671  1.00271316 49583
SKYNET 5A               
1 30794U 07007B   25113.97863822 -.00000265  00000+0  00000+0 0  9996
2 30794   4.2322  78.8080 0003950 324.8465 256.1071  1.00269261 66458
ANIK F3                 
1 31102U 07009A   25114.22772949  .00000002  00000+0  00000+0 0  9998
2 31102   0.1116  87.3463 0002398 304.0942 144.3350  1.00271032 66135
ASTRA 1L                
1 31306U 07016A   25113.89220789  .00000123  00000+0  00000+0 0  9998
2 31306   0.2390  77.2775 0003171 315.8889 159.6021  1.00269665 40786
GALAXY 17 (G-17)        
1 31307U 07016B   25113.87153038 -.00000202  00000+0  00000+0 0  9998
2 31307   1.9081  85.2458 0000803 233.0434 122.6269  1.00270963 65598
ZHONGXING-6B            
1 31800U 07031A   25113.91113219 -.00000358  00000+0  00000+0 0  9997
2 31800   1.3140  86.7098 0003396 293.0153 275.8107  1.00271860 65225
DIRECTV 10              
1 31862U 07032A   25114.55557447 -.00000101  00000+0  00000+0 0  9998
2 31862   0.0027 339.8456 0000230 357.0018 333.2115  1.00271367 65206
BSAT-3A                 
1 32019U 07036B   25113.84398931 -.00000284  00000+0  00000+0 0  9991
2 32019   0.5693 103.8289 0001299  61.7101 126.4339  0.99142669 46316
OPTUS D2                
1 32252U 07044A   25113.84876772 -.00000106  00000+0  00000+0 0  9996
2 32252   0.9870  87.3262 0004300 284.5189 305.9733  1.00272621 64362
INTELSAT 11 (IS-11)     
1 32253U 07044B   25113.77752961 -.00000206  00000+0  00000+0 0  9993
2 32253   2.4703  83.8442 0000345 290.8019 288.1717  0.99049750 64291
WGS F1 (USA 195)        
1 32258U 07046A   25113.95135778 -.00000265  00000+0  00000+0 0  9996
2 32258   0.1065  86.9507 0000222 278.6034 146.6814  1.00270831 64119
SKYNET 5B               
1 32294U 07056B   25113.67919707  .00000147  00000+0  00000+0 0  9996
2 32294   4.1845  78.4961 0003816 310.5530  92.5203  1.00274146 63997
ASTRA 4A                
1 32299U 07057A   25114.17490091  .00000035  00000+0  00000+0 0  9994
2 32299   0.0219 296.9340 0002805  93.3544 249.9369  1.00270776 63758
HORIZONS-2              
1 32388U 07063B   25113.87378927 -.00000249  00000+0  00000+0 0  9997
2 32388   1.5172  85.8294 0001984 306.1755  60.9424  1.00271863 63616
THURAYA-3               
1 32404U 08001A   25113.84558778 -.00000297  00000+0  00000+0 0  9993
2 32404   5.3095  34.5154 0001808   7.6526 212.8645  1.00269702 63286
THOR 5                  
1 32487U 08006A   25113.88821140 -.00000007  00000+0  00000+0 0  9998
2 32487   0.0094 183.9613 0002483 216.3103 130.9067  1.00271618 63116
AMC-14                  
1 32708U 08011A   25111.97067051  .00000078  00000+0  00000+0 0  9998
2 32708  23.4890  25.5869 0044352   0.8552 190.8114  1.00274544 63944
DIRECTV 11              
1 32729U 08013A   25114.46338983 -.00000123  00000+0  00000+0 0  9997
2 32729   0.0033  32.8123 0000064 264.1996 343.3663  1.00270347 62737
ICO G1                  
1 32763U 08016A   25113.86996653 -.00000167  00000+0  00000+0 0  9993
2 32763   5.3948  36.7655 0002352 345.3507  50.3710  1.00271767 62345
VINASAT-1               
1 32767U 08018A   25113.70037606 -.00000327  00000+0  00000+0 0  9994
2 32767   0.0112 301.8419 0001876 121.9216 172.2960  1.00268728 62381
STAR ONE C2             
1 32768U 08018B   25114.08967128 -.00000274  00000+0  00000+0 0  9999
2 32768   0.1715  79.2277 0002722 316.7561 143.6595  1.00269253 62344
AMOS-3                  
1 32794U 08022A   25113.88760323 -.00000033  00000+0  00000+0 0  9991
2 32794   0.0399  90.1059 0002344 253.9396 183.5455  1.00270082 78132
GALAXY 18 (G-18)        
1 32951U 08024A   25113.64983152  .00000027  00000+0  00000+0 0  9991
2 32951   0.0138 198.7990 0002876 196.2092 287.8705  1.00274396 41643
ZHONGXING-9             
1 33051U 08028A   25113.90670128 -.00000245  00000+0  00000+0 0  9995
2 33051   0.0162 257.5918 0004505 156.0528 217.1458  1.00267676 61832
SKYNET 5C               
1 33055U 08030A   25113.88490994 -.00000135  00000+0  00000+0 0  9998
2 33055   2.7106  81.9540 0005345 315.2028 115.7898  1.00271377 61755
TURKSAT 3A              
1 33056U 08030B   25114.18228574  .00000148  00000+0  00000+0 0  9999
2 33056   0.0685  79.0987 0005284 330.4049 270.5563  1.00271211 61875
INTELSAT 25 (IS-25)     
1 33153U 08034A   25113.88212978 -.00000220  00000+0  00000+0 0  9990
2 33153   1.6240  85.4967 0003265 321.6869  91.0342  1.00269483 61492
ECHOSTAR 11             
1 33207U 08035A   25113.86649132 -.00000054  00000+0  00000+0 0  9990
2 33207   0.0155 125.9038 0002533 261.3229  26.8610  1.00269773 47003
SUPERBIRD-C2            
1 33274U 08038A   25113.84555315 -.00000248  00000+0  00000+0 0  9999
2 33274   1.2766  86.6295 0001158 266.0555 307.7997  1.00271572101529
AMC-21                  
1 33275U 08038B   25113.64939712  .00000040  00000+0  00000+0 0  9994
2 33275   1.8620  85.6424 0002882 314.1760 281.0005  1.00271845 61281
INMARSAT 4-F3           
1 33278U 08039A   25113.86892397 -.00000136  00000+0  00000+0 0  9996
2 33278   3.9482  29.6138 0002823   8.5215  28.8155  1.00272763 42346
NIMIQ 4                 
1 33373U 08044A   25113.87213854 -.00000218  00000+0  00000+0 0  9995
2 33373   0.0125 265.5841 0002281 116.5999  61.9461  1.00272443 60773
GALAXY 19 (G-19)        
1 33376U 08045A   25113.05066700 -.00000137  00000+0  00000+0 0  9995
2 33376   0.0237 263.2820 0002918 139.2651  90.0362  1.00271370 60698
